{
    "links": {
        "self": "http://www.neowsapp.com/rest/v1/neo/3744696?api_key=iIulBulltgU6a56xZRHN4H3l9WmuAYTsLGpBGhQ2"
    },
    "id": "3744696",
    "neo_reference_id": "3744696",
    "name": "(2016 DK)",
    "designation": "2016 DK",
    "nasa_jpl_url": "http://ssd.jpl.nasa.gov/sbdb.cgi?sstr=3744696",
    "absolute_magnitude_h": 22.4,
    "estimated_diameter": {
        "kilometers": {
            "estimated_diameter_min": 0.0880146521,
            "estimated_diameter_max": 0.1968067451
        },
        "meters": {
            "estimated_diameter_min": 88.0146520901,
            "estimated_diameter_max": 196.8067450894
        },
        "miles": {
            "estimated_diameter_min": 0.0546897524,
            "estimated_diameter_max": 0.122290004
        },
        "feet": {
            "estimated_diameter_min": 288.7619911632,
            "estimated_diameter_max": 645.6914415591
        }
    },
    "is_potentially_hazardous_asteroid": false,
    "close_approach_data": [
        {
            "close_approach_date": "2016-02-17",
            "close_approach_date_full": "2016-Feb-17 14:18",
            "epoch_date_close_approach": 1455718680000,
            "relative_velocity": {
                "kilometers_per_second": "19.894217582",
                "kilometers_per_hour": "71619.1832951518",
                "miles_per_hour": "44501.3753091458"
            },
            "miss_distance": {
                "astronomical": "0.0920127737",
                "lunar": "35.7929689693",
                "kilometers": "13764914.958312019",
                "miles": "8553121.5415791022"
            },
            "orbiting_body": "Earth"
        }
    ],
    "orbital_data": {
        "orbit_id": "8",
        "orbit_determination_date": "2017-04-06 08:28:07",
        "first_observation_date": "2016-02-16",
        "last_observation_date": "2016-03-01",
        "data_arc_in_days": 14,
        "observations_used": 54,
        "orbit_uncertainty": "9",
        "minimum_orbit_intersection": ".0527363",
        "jupiter_tisserand_invariant": "3.045",
        "epoch_osculation": "2457438.5",
        "eccentricity": ".5803074239422155",
        "semi_major_axis": "2.477035045334561",
        "inclination": "32.79228968298499",
        "ascending_node_longitude": "152.3207282087024",
        "orbital_period": "1423.956274083713",
        "perihelion_distance": "1.039593219161873",
        "perihelion_argument": "353.923650813939",
        "aphelion_distance": "3.91447687150725",
        "perihelion_time": "2457430.860516034486",
        "mean_anomaly": "1.931389522023594",
        "mean_motion": ".2528167518568313",
        "equinox": "J2000",
        "orbit_class": {
            "orbit_class_type": "AMO",
            "orbit_class_description": "Near-Earth asteroid orbits similar to that of 1221 Amor",
            "orbit_class_range": "1.017 AU < q (perihelion) < 1.3 AU"
        }
    },
    "is_sentry_object": false
}